HAWK-5A                 
1 52757U 22057AB  26168.88225544  .00015942  00000+0  27201-3 0  9998
2 52757  97.6610 327.7741 0005552  76.7280 283.4590 15.51414116226454
HAWK-6B                 
1 55324U 23011A   26168.90442639  .00003929  00000+0  17203-3 0  9994
2 55324  40.4999 347.8886 0002254   5.5255 354.5579 15.22939266187958
HAWK-6C                 
1 55326U 23011C   26168.83818852  .00003596  00000+0  15816-3 0  9990
2 55326  40.4990 345.1140 0003194 354.0294   6.0477 15.22935258187957
HAWK-6A                 
1 55327U 23011D   26168.83824222  .00003896  00000+0  17066-3 0  9991
2 55327  40.5001 346.7379 0002903 350.3585   9.7168 15.22936667187954
HAWK-7A                 
1 56191U 23054P   26168.76551745  .00004573  00000+0  17334-3 0  9998
2 56191  97.2699  56.0880 0004303  56.2484 303.9165 15.27365903177117
HAWK-7B                 
1 56193U 23054R   26168.76543441  .00004651  00000+0  17625-3 0  9994
2 56193  97.2724  54.3521 0003715  67.7987 292.3647 15.27363946177113
HAWK-7C                 
1 56200U 23054Y   26168.76532258  .00004595  00000+0  17416-3 0  9992
2 56200  97.2702  55.1207 0003665  59.3214 300.8386 15.27365535177113
